#dP2025  2 10  6  0  0.00000000      96 __u+U IGS20 EXT  IAC
## 2353 108000.00000000   900.00000000 60716 0.2500000000000
+   53   G01G02G03G04G05G06G07G08G09G10G11G12G13G14G15G16G17
+        G18G19G20G21G22G23G24G25G26G27G28G29G30G31G32R01R02
+        R03R04R05R07R08R09R11R12R14R15R16R17R18R19R20R21R22
+        R24R26  0  0  0  0  0  0  0  0  0  0  0  0  0  0  0
+          0  0  0  0  0  0  0  0  0  0  0  0  0  0  0  0  0
++         8  9  8  9  9  9  9  9  9  9  9  8  9  9  8  9  9
++         8  9  9  9  9  9  8  8  9  9  9  8  9  9  9  9  9
++        10  9  9  9  9 10  8  8 10  9  9  9  9  9  9  9  9
++         8  9  0  0  0  0  0  0  0  0  0  0  0  0  0  0  0
++         0  0  0  0  0  0  0  0  0  0  0  0  0  0  0  0  0
%c M  cc GPS ccc cccc cccc cccc cccc ccccc ccccc ccccc ccccc
%c cc cc ccc ccc cccc cccc cccc cccc ccccc ccccc ccccc ccccc
%f  0.0000000  0.000000000  0.00000000000  0.000000000000000
%f  0.0000000  0.000000000  0.00000000000  0.000000000000000
%i    0    0    0    0      0      0      0      0         0
%i    0    0    0    0      0      0      0      0         0
/* IAC                                ULTRA-RAPID PREDICTION
/* S/V CLOCKS ARE ALIGNED TO GNSS TIME                      
/* G:C1WC2W R:C1PC2P E:C1XC5X C:C2IC6I J:C1CC2S             
/* PCV:IGS20_2350 OL/AL:FES2004  NONE     YN ORB:CoN CLK:CoN
*  2025 02 10 20  0  0.00000000
PG01  14468.907478 -10028.344837  19889.883178    112.487997
PG02  14260.707247  -7019.159739  21665.365736   -246.145653
PG03  23399.713080 -12112.361069   2616.350783    661.422876
PG04  18574.680998  -3937.818049 -18613.368902    525.299289
PG05 -21664.847955   2078.154203 -15444.943086   -201.585888
PG06  -6339.187505 -23942.376992  -9344.926110   -178.986894
PG07   6881.175784 -22913.453130 -10496.118240    -13.725727
PG08  24427.509965   3976.029830  10101.801036    477.860388
PG09   9843.346902 -11969.578258 -21666.857932    562.328061
PG10    497.002773  16119.424422  21270.202536   -313.232929
PG11 -12031.981905 -15559.604313 -17834.157323   -747.916565
PG12 -24402.203612   9403.700191   4226.342373   -569.477645
PG13 -22607.200503 -13582.405577   3881.740355    696.089322
PG14   3298.812533 -18037.797823  19177.929057    596.238354
PG15 -24426.619055   -755.518697  10048.732016    261.977998
PG16  18935.369571   5022.534996 -18497.770310    -56.152068
PG17  -4863.198641 -18396.361121  18843.483542    431.936762
PG18  -5975.523222  24098.939950  -9077.547274   -653.740516
PG19 -14727.926910 -19367.554759  11027.116316    596.541752
PG20 -13730.024296  -7799.672662 -21251.256274    366.401694
PG21  15577.719846   1243.311276  21909.510718    101.769616
PG22  -4002.249969 -15133.628903  21860.880222    -96.424545
PG23 -13663.314709  18873.837305  12575.929757    421.108879
PG24 -14839.454785   5378.925906  20854.780406   -453.558369
PG25 -18478.408344  17726.209545  -6878.410210    495.217578
PG26  10761.340614  11895.944117 -21372.961245    -85.639671
PG27  23479.077613  12923.629689   -628.002613    -31.698179
PG28   6389.527031  24774.183721  -7121.933119   -556.611185
PG29 -10897.350487  10792.792367 -21743.200266   -538.910755
PG30  -1001.321323 -26392.844454    277.074160   -219.104963
PG31  10629.076754  19245.614509 -14889.603579   -215.806311
PG32  11457.694710  18406.808443  15715.372239   -524.287955
PR01 -17389.656817  -9642.712640 -15979.357391    114.298137
PR02 -25156.140670  -3999.734603     34.755499    -37.512982
PR03 -18832.691880   4979.042409  16486.116236    116.604986
PR04  -2605.624344  10383.282700  23186.913794    276.662453
PR05  15073.013951  10669.267588  17624.004259    145.143790
PR07  18759.896791  -4985.591953 -16532.162849    100.560344
PR08   2256.239622 -10528.283212 -23058.477465     -6.161768
PR09  15029.922481  -3448.104825 -20278.107545    237.237835
PR11  11425.088392 -21208.504664   8365.116995     -8.149674
PR12  -3306.642086 -12785.201352  21842.831965     50.646402
PR14 -17568.454328  16986.640724   7352.987619     27.744935
PR15 -10361.719991  21036.324162 -10035.658509     71.326906
PR16   3094.072383  12808.838337 -21845.073332     33.213235
PR17  -7283.820787   9701.804743 -22423.106007    164.986923
PR18   1908.897556  21907.032762 -12957.721815    186.392421
PR19   8657.132822  23966.054533   1191.725990    -40.194997
PR20  12710.574078  10255.586439  19622.013243   -125.718022
PR21   7955.833251  -8282.568599  22780.742410   -175.694984
PR22  -1953.861014 -22527.923894  11817.999663    -60.006145
PR24 -13528.011141  -8966.075782 -19664.233810    -91.953909
PR26   4418.342275 -10162.176771 -22948.766491   -130.886805
*  2025 02 10 20 15  0.00000000
PG01  14513.295174  -7695.225003  20874.001331    112.510189
PG02  14655.065081  -4640.689889  22081.763169   -246.137291
PG03  23095.929464 -11694.243153   5482.853046    661.428156
PG04  20295.591290  -2848.896287 -16956.114957    525.304308
PG05 -20256.607956    882.028723 -17366.538831   -201.586792
PG06  -6205.150484 -24871.491693  -6622.576410   -179.009454
PG07   7247.107873 -21501.589421 -12887.864969    -13.726168
PG08  25257.116914   4607.574057   7540.795571    477.866481
PG09  12022.944340 -10897.596195 -21129.632892    562.340580
PG10  -1491.555779  17329.008813  20206.527401   -313.246603
PG11 -11909.296253 -17503.186478 -16032.880877   -747.914577
PG12 -23939.114318   8849.042569   6986.273489   -569.479466
PG13 -22742.447424 -13921.198639   1033.282126    696.090317
PG14   5177.201042 -19025.455888  17729.066418    596.244439
PG15 -25358.739619  -1354.231903   7496.229242    261.982011
PG16  17122.624325   6113.878934 -19871.568443    -56.143799
PG17  -2935.450211 -17413.909993  20176.444880    431.919975
PG18  -6231.249668  22914.342560 -11628.530930   -653.738571
PG19 -13451.634789 -18764.063177  13377.793920    596.545661
PG20 -11970.770655  -9539.352929 -21611.621978    366.401444
PG21  15950.392962   3608.056838  21465.903658    101.769238
PG22  -1882.726014 -16238.455912  21365.885940    -96.425962
PG23 -14827.744537  19466.588591  10078.213835    421.115444
PG24 -15281.766324   2908.702032  21057.074969   -453.553994
PG25 -19136.059737  17819.322711  -4126.298224    495.216937
PG26   8857.333363  13382.838456 -21332.274776    -85.654650
PG27  23204.102956  13041.070201  -3440.909274    -31.697595
PG28   6204.779451  25449.700919  -4365.234978   -556.618914
PG29 -12973.707390   9504.010515 -21207.948663   -538.907505
PG30   -645.114037 -26267.274497  -2539.840561   -219.097072
PG31  10460.041268  20807.329735 -12678.833388   -215.805477
PG32   9727.312955  17720.028712  17571.029548   -524.280958
PR01 -15299.701902  -9362.427611 -18136.054889    114.299350
PR02 -24977.690511  -3804.044586  -3188.183509    -37.512522
PR03 -20713.432265   4888.248076  14068.095310    116.605785
PR04  -5419.425950  10046.104504  22844.267679    276.664132
PR05  12815.229678  10263.176379  19546.317024    145.144357
PR07  20661.239151  -4892.597885 -14129.189135    100.561061
PR08   5083.253006 -10215.950142 -22750.900224     -6.161614
PR09  13542.179192  -1334.960128 -21542.308049    237.239772
PR11  11808.832044 -21971.220447   5298.498661     -8.152800
PR12  -1802.098055 -14925.399057  20627.564448     50.646825
PR14 -16846.625980  16165.949370  10301.149330     27.745038
PR15 -10890.741949  21958.409381  -7064.737397     71.326611
PR16   1600.140178  14961.196264 -20605.401172     33.213570
PR17  -8357.347647   7105.958083 -23016.339772    164.989723
PR18   1388.328891  20218.438559 -15509.103472    186.394170
PR19   8841.210620  23840.048865  -2051.537728    -40.196205
PR20  13637.461643  12366.839285  17690.115107   -125.718548
PR21   9022.580052  -5652.211361  23182.406167   -175.697873
PR22  -1479.789080 -20977.443865  14454.197987    -60.007520
PR24 -14523.956697 -11058.289594 -17803.212005    -91.955406
PR26   7207.887866  -9885.354561 -22354.323207   -130.886404
EOF
